CCSDS_OMM_VERS = 2.0
CREATION_DATE  = 
ORIGINATOR     = 

OBJECT_NAME    = SL-3 R/B
OBJECT_ID      = 1982-039B
CENTER_NAME    = EARTH
REF_FRAME      = TEME
TIME_SYSTEM    = UTC
MEAN_ELEMENT_THEORY = SGP/SGP4

EPOCH          = 2025-10-27T04:00:05.791680
MEAN_MOTION    = 15.09158544
ECCENTRICITY   = .0032868
INCLINATION    = 81.1845
RA_OF_ASC_NODE = 9.6305
ARG_OF_PERICENTER = 42.6361
MEAN_ANOMALY   = 317.7406

EPHEMERIS_TYPE = 0
CLASSIFICATION_TYPE = U
NORAD_CAT_ID   = 13154
ELEMENT_SET_NO = 999
REV_AT_EPOCH   = 36149
BSTAR          = .18229E-3
MEAN_MOTION_DOT = .2953E-4
MEAN_MOTION_DDOT = 0

CCSDS_OMM_VERS = 2.0
CREATION_DATE  = 
ORIGINATOR     = 

OBJECT_NAME    = SL-3 R/B
OBJECT_ID      = 1982-079B
CENTER_NAME    = EARTH
REF_FRAME      = TEME
TIME_SYSTEM    = UTC
MEAN_ELEMENT_THEORY = SGP/SGP4

EPOCH          = 2025-10-27T04:07:17.625792
MEAN_MOTION    = 15.22878298
ECCENTRICITY   = .0024551
INCLINATION    = 81.1484
RA_OF_ASC_NODE = 350.5286
ARG_OF_PERICENTER = 256.1413
MEAN_ANOMALY   = 103.7087

EPHEMERIS_TYPE = 0
CLASSIFICATION_TYPE = U
NORAD_CAT_ID   = 13403
ELEMENT_SET_NO = 999
REV_AT_EPOCH   = 35736
BSTAR          = .25351E-3
MEAN_MOTION_DOT = .6013E-4
MEAN_MOTION_DDOT = 0

CCSDS_OMM_VERS = 2.0
CREATION_DATE  = 
ORIGINATOR     = 

OBJECT_NAME    = SL-14 R/B
OBJECT_ID      = 1982-092B
CENTER_NAME    = EARTH
REF_FRAME      = TEME
TIME_SYSTEM    = UTC
MEAN_ELEMENT_THEORY = SGP/SGP4

EPOCH          = 2025-10-27T03:47:13.017120
MEAN_MOTION    = 14.86472866
ECCENTRICITY   = .0021237
INCLINATION    = 82.5658
RA_OF_ASC_NODE = 266.2761
ARG_OF_PERICENTER = 28.4406
MEAN_ANOMALY   = 342.4329

EPHEMERIS_TYPE = 0
CLASSIFICATION_TYPE = U
NORAD_CAT_ID   = 13553
ELEMENT_SET_NO = 999
REV_AT_EPOCH   = 30909
BSTAR          = .10497E-3
MEAN_MOTION_DOT = .956E-5
MEAN_MOTION_DDOT = 0

CCSDS_OMM_VERS = 2.0
CREATION_DATE  = 
ORIGINATOR     = 

OBJECT_NAME    = SL-3 R/B
OBJECT_ID      = 1983-010B
CENTER_NAME    = EARTH
REF_FRAME      = TEME
TIME_SYSTEM    = UTC
MEAN_ELEMENT_THEORY = SGP/SGP4

EPOCH          = 2025-10-27T03:12:22.787712
MEAN_MOTION    = 15.41820167
ECCENTRICITY   = .0017968
INCLINATION    = 81.1045
RA_OF_ASC_NODE = 165.4336
ARG_OF_PERICENTER = 148.0018
MEAN_ANOMALY   = 212.2319

EPHEMERIS_TYPE = 0
CLASSIFICATION_TYPE = U
NORAD_CAT_ID   = 13819
ELEMENT_SET_NO = 999
REV_AT_EPOCH   = 33733
BSTAR          = .3E-3
MEAN_MOTION_DOT = .12817E-3
MEAN_MOTION_DDOT = 0

CCSDS_OMM_VERS = 2.0
CREATION_DATE  = 
ORIGINATOR     = 

OBJECT_NAME    = SL-3 R/B
OBJECT_ID      = 1983-075B
CENTER_NAME    = EARTH
REF_FRAME      = TEME
TIME_SYSTEM    = UTC
MEAN_ELEMENT_THEORY = SGP/SGP4

EPOCH          = 2025-10-27T03:01:51.843072
MEAN_MOTION    = 15.34775186
ECCENTRICITY   = .0023106
INCLINATION    = 97.6106
RA_OF_ASC_NODE = 295.0924
ARG_OF_PERICENTER = 352.3132
MEAN_ANOMALY   = 7.7753

EPHEMERIS_TYPE = 0
CLASSIFICATION_TYPE = U
NORAD_CAT_ID   = 14208
ELEMENT_SET_NO = 999
REV_AT_EPOCH   = 30964
BSTAR          = .36935E-3
MEAN_MOTION_DOT = .12479E-3
MEAN_MOTION_DDOT = 0

CCSDS_OMM_VERS = 2.0
CREATION_DATE  = 
ORIGINATOR     = 

OBJECT_NAME    = COSMOS 1536
OBJECT_ID      = 1984-013A
CENTER_NAME    = EARTH
REF_FRAME      = TEME
TIME_SYSTEM    = UTC
MEAN_ELEMENT_THEORY = SGP/SGP4

EPOCH          = 2025-10-26T22:24:31.903776
MEAN_MOTION    = 15.21639831
ECCENTRICITY   = .0016866
INCLINATION    = 82.5458
RA_OF_ASC_NODE = 240.5467
ARG_OF_PERICENTER = 39.0827
MEAN_ANOMALY   = 321.1623

EPHEMERIS_TYPE = 0
CLASSIFICATION_TYPE = U
NORAD_CAT_ID   = 14699
ELEMENT_SET_NO = 999
REV_AT_EPOCH   = 25226
BSTAR          = .45824E-3
MEAN_MOTION_DOT = .10425E-3
MEAN_MOTION_DDOT = 0

CCSDS_OMM_VERS = 2.0
CREATION_DATE  = 
ORIGINATOR     = 

OBJECT_NAME    = SL-14 R/B
OBJECT_ID      = 1984-027B
CENTER_NAME    = EARTH
REF_FRAME      = TEME
TIME_SYSTEM    = UTC
MEAN_ELEMENT_THEORY = SGP/SGP4

EPOCH          = 2025-10-27T03:44:16.187424
MEAN_MOTION    = 14.85804763
ECCENTRICITY   = .0019308
INCLINATION    = 82.5449
RA_OF_ASC_NODE = 10.2370
ARG_OF_PERICENTER = 58.4964
MEAN_ANOMALY   = 301.8135

EPHEMERIS_TYPE = 0
CLASSIFICATION_TYPE = U
NORAD_CAT_ID   = 14820
ELEMENT_SET_NO = 999
REV_AT_EPOCH   = 22780
BSTAR          = .74765E-4
MEAN_MOTION_DOT = .677E-5
MEAN_MOTION_DDOT = 0

CCSDS_OMM_VERS = 2.0
CREATION_DATE  = 
ORIGINATOR     = 

OBJECT_NAME    = SL-8 R/B
OBJECT_ID      = 1985-006B
CENTER_NAME    = EARTH
REF_FRAME      = TEME
TIME_SYSTEM    = UTC
MEAN_ELEMENT_THEORY = SGP/SGP4

EPOCH          = 2025-10-27T01:42:16.154784
MEAN_MOTION    = 14.37679349
ECCENTRICITY   = .0017408
INCLINATION    = 74.0438
RA_OF_ASC_NODE = 146.9955
ARG_OF_PERICENTER = 95.2155
MEAN_ANOMALY   = 18.9696

EPHEMERIS_TYPE = 0
CLASSIFICATION_TYPE = U
NORAD_CAT_ID   = 15483
ELEMENT_SET_NO = 999
REV_AT_EPOCH   = 13482
BSTAR          = .96084E-4
MEAN_MOTION_DOT = .263E-5
MEAN_MOTION_DDOT = 0

CCSDS_OMM_VERS = 2.0
CREATION_DATE  = 
ORIGINATOR     = 

OBJECT_NAME    = SL-12 R/B(2)
OBJECT_ID      = 1985-042D
CENTER_NAME    = EARTH
REF_FRAME      = TEME
TIME_SYSTEM    = UTC
MEAN_ELEMENT_THEORY = SGP/SGP4

EPOCH          = 2025-10-27T04:03:13.663296
MEAN_MOTION    = 14.21930353
ECCENTRICITY   = .0036469
INCLINATION    = 71.1103
RA_OF_ASC_NODE = 9.8066
ARG_OF_PERICENTER = 330.1772
MEAN_ANOMALY   = 56.2823

EPHEMERIS_TYPE = 0
CLASSIFICATION_TYPE = U
NORAD_CAT_ID   = 15772
ELEMENT_SET_NO = 999
REV_AT_EPOCH   = 9541
BSTAR          = .12355E-3
MEAN_MOTION_DOT = .227E-5
MEAN_MOTION_DDOT = 0

CCSDS_OMM_VERS = 2.0
CREATION_DATE  = 
ORIGINATOR     = 

OBJECT_NAME    = SL-14 R/B
OBJECT_ID      = 1985-069B
CENTER_NAME    = EARTH
REF_FRAME      = TEME
TIME_SYSTEM    = UTC
MEAN_ELEMENT_THEORY = SGP/SGP4

EPOCH          = 2025-10-27T01:06:26.240256
MEAN_MOTION    = 14.86245502
ECCENTRICITY   = .0017354
INCLINATION    = 82.5261
RA_OF_ASC_NODE = 150.6016
ARG_OF_PERICENTER = 275.9549
MEAN_ANOMALY   = 83.9690

EPHEMERIS_TYPE = 0
CLASSIFICATION_TYPE = U
NORAD_CAT_ID   = 15945
ELEMENT_SET_NO = 999
REV_AT_EPOCH   = 15298
BSTAR          = .67429E-4
MEAN_MOTION_DOT = .618E-5
MEAN_MOTION_DDOT = 0

CCSDS_OMM_VERS = 2.0
CREATION_DATE  = 
ORIGINATOR     = 

OBJECT_NAME    = SL-16 R/B
OBJECT_ID      = 1985-097B
CENTER_NAME    = EARTH
REF_FRAME      = TEME
TIME_SYSTEM    = UTC
MEAN_ELEMENT_THEORY = SGP/SGP4

EPOCH          = 2025-10-26T20:13:34.642848
MEAN_MOTION    = 14.16573697
ECCENTRICITY   = .00053047
INCLINATION    = 71.0032
RA_OF_ASC_NODE = 62.3304
ARG_OF_PERICENTER = 104.7356
MEAN_ANOMALY   = 65.3119

EPHEMERIS_TYPE = 0
CLASSIFICATION_TYPE = U
NORAD_CAT_ID   = 16182
ELEMENT_SET_NO = 999
REV_AT_EPOCH   = 6827
BSTAR          = .18432587E-3
MEAN_MOTION_DOT = .32E-5
MEAN_MOTION_DDOT = 0

CCSDS_OMM_VERS = 2.0
CREATION_DATE  = 
ORIGINATOR     = 

OBJECT_NAME    = SL-14 R/B
OBJECT_ID      = 1986-006B
CENTER_NAME    = EARTH
REF_FRAME      = TEME
TIME_SYSTEM    = UTC
MEAN_ELEMENT_THEORY = SGP/SGP4

EPOCH          = 2025-10-27T04:33:38.776032
MEAN_MOTION    = 14.86578528
ECCENTRICITY   = .0076721
INCLINATION    = 82.5301
RA_OF_ASC_NODE = 25.3413
ARG_OF_PERICENTER = 356.3936
MEAN_ANOMALY   = 3.6716

EPHEMERIS_TYPE = 0
CLASSIFICATION_TYPE = U
NORAD_CAT_ID   = 16496
ELEMENT_SET_NO = 999
REV_AT_EPOCH   = 12937
BSTAR          = .8977E-4
MEAN_MOTION_DOT = .865E-5
MEAN_MOTION_DDOT = 0

