SL-3 R/B                
1 13154U 82039B   25300.16673370  .00002953  00000+0  18229-3 0  9992
2 13154  81.1845   9.6305 0032868  42.6361 317.7406 15.09158544361498
SL-3 R/B                
1 13403U 82079B   25300.17173178  .00006013  00000+0  25351-3 0  9990
2 13403  81.1484 350.5286 0024551 256.1413 103.7087 15.22878298357369
SL-14 R/B               
1 13553U 82092B   25300.15778955  .00000956  00000+0  10497-3 0  9998
2 13553  82.5658 266.2761 0021237  28.4406 342.4329 14.86472866309092
SL-3 R/B                
1 13819U 83010B   25300.13359708  .00012817  00000+0  30000-3 0  9994
2 13819  81.1045 165.4336 0017968 148.0018 212.2319 15.41820167337338
SL-3 R/B                
1 14208U 83075B   25300.12629448  .00012479  00000+0  36935-3 0  9995
2 14208  97.6106 295.0924 0023106 352.3132   7.7753 15.34775186309646
COSMOS 1536             
1 14699U 84013A   25299.93370259  .00010425  00000+0  45824-3 0  9997
2 14699  82.5458 240.5467 0016866  39.0827 321.1623 15.21639831252261
SL-14 R/B               
1 14820U 84027B   25300.15574291  .00000677  00000+0  74765-4 0  9992
2 14820  82.5449  10.2370 0019308  58.4964 301.8135 14.85804763227805
SL-8 R/B                
1 15483U 85006B   25300.07102031  .00000263  00000+0  96084-4 0  9995
2 15483  74.0438 146.9955 0017408  95.2155  18.9696 14.37679349134825
SL-12 R/B(2)            
1 15772U 85042D   25300.16890814  .00000227  00000+0  12355-3 0  9997
2 15772  71.1103   9.8066 0036469 330.1772  56.2823 14.21930353 95413
SL-14 R/B               
1 15945U 85069B   25300.04613704  .00000618  00000+0  67429-4 0  9993
2 15945  82.5261 150.6016 0017354 275.9549  83.9690 14.86245502152987
SL-16 R/B               
1 16182U 85097B   25299.84276207  .00000320  00000+0  18433-3 0  9996
2 16182  71.0032  62.3304 0005304 104.7356  65.3119 14.16573697 68276
SL-14 R/B               
1 16496U 86006B   25300.19003213  .00000865  00000+0  89770-4 0  9998
2 16496  82.5301  25.3413 0076721 356.3936   3.6716 14.86578528129372
